OBJECT_NAME,OBJECT_ID,EPOCH,MEAN_MOTION,ECCENTRICITY,INCLINATION,RA_OF_ASC_NODE,ARG_OF_PERICENTER,MEAN_ANOMALY,EPHEMERIS_TYPE,CLASSIFICATION_TYPE,NORAD_CAT_ID,ELEMENT_SET_NO,REV_AT_EPOCH,BSTAR,MEAN_MOTION_DOT,MEAN_MOTION_DDOT
KUIPER-00203,2026-030K,2026-05-22T16:37:52.432608,14.79942201,.0000619,51.9055,250.8943,119.0828,241.0197,0,U,67773,999,1606,.33717E-3,.2351E-4,0
KUIPER-00205,2026-030L,2026-05-22T18:00:02.000160,15.33570555,.000423,51.8803,220.9244,301.9995,229.2693,0,U,67774,999,506,.10259E-2,.33577E-3,0
KUIPER-00208,2026-030M,2026-05-22T14:33:20.063808,14.76526215,.0006846,51.8971,242.4435,317.5207,42.5223,0,U,67775,999,1617,.20223E-3,.1207E-4,0
KUIPER-00209,2026-030N,2026-05-22T16:53:14.304192,14.79906834,.0000574,51.8982,240.9127,157.8801,202.2186,0,U,67776,999,1620,.19014E-3,.1228E-4,0
KUIPER-00213,2026-030P,2026-05-22T16:08:31.642080,14.79901220,.0001146,51.8956,238.5505,60.8895,299.2182,0,U,67777,999,1623,.33145E-3,.2305E-4,0
KUIPER-00214,2026-030Q,2026-05-22T15:23:57.672672,14.79933012,.0000543,51.8989,236.1764,112.2171,247.8849,0,U,67778,999,1626,.35662E-3,.2499E-4,0
KUIPER-00215,2026-030R,2026-05-22T18:00:02.000160,15.11494007,.0010094,51.8953,223.8543,340.8768,243.7599,0,U,67779,999,569,-.15744E-3,-.3001E-4,0
KUIPER-00218,2026-030S,2026-05-22T14:09:23.103936,14.76456656,.0000934,51.8962,238.3213,93.5987,266.5080,0,U,67780,999,1623,.18761E-3,.1103E-4,0
KUIPER-00220,2026-030T,2026-05-22T18:00:02.000160,15.29625226,.000855,51.8824,222.3264,334.4592,211.9143,0,U,67781,999,584,-.56971E-3,-.16936E-3,0
KUIPER-00222,2026-030U,2026-05-22T14:39:04.914720,14.79860530,.0001195,51.8952,233.8839,261.4095,98.6732,0,U,67782,999,1629,-.12894E-2,-.10019E-3,0
KUIPER-00223,2026-030V,2026-05-22T18:00:02.000160,14.94596697,.00075,51.8944,225.7013,352.3488,65.6910,0,U,67783,999,553,.41348E-3,.4273E-4,0
KUIPER-00225,2026-030W,2026-05-22T16:11:23.896896,14.76427280,.0002728,51.8981,230.6498,345.7652,14.3232,0,U,67784,999,1634,.20764E-3,.1242E-4,0
KUIPER-00226,2026-030X,2026-05-20T06:18:12.384576,15.23722137,.0018029,51.8854,238.9188,324.7797,35.1992,0,U,67785,999,1602,.18133E-3,.4093E-4,0
KUIPER-00259,2026-030Y,2026-05-22T13:38:53.824128,14.76352741,.000158,51.8976,230.9719,100.8088,259.3051,0,U,67786,999,1633,.1995E-3,.1183E-4,0
KUIPER-00260,2026-030Z,2026-05-22T18:00:02.000160,14.76533481,.000247,51.9149,227.6600,112.9985,169.4292,0,U,67787,999,414,.28279E-2,.19738E-3,0
KUIPER-00262,2026-030AA,2026-05-22T18:00:02.000160,14.79343163,.000252,51.8992,228.1241,97.2366,82.2060,0,U,67788,999,217,.30689E-2,.22929E-3,0
KUIPER-00266,2026-030AB,2026-05-22T18:00:02.000160,15.09771693,.0021582,51.8890,227.3379,338.9689,239.9950,0,U,67789,999,551,.13473E-2,.21902E-3,0
KUIPER-00268,2026-030AC,2026-05-22T18:00:02.000160,15.01517704,.0002903,51.8943,223.8382,331.7595,184.2281,0,U,67790,999,566,.92697E-3,.11881E-3,0
KUIPER-00270,2026-030AD,2026-05-22T12:25:59.419776,15.36067187,.0011074,51.8802,223.4159,325.5485,34.4782,0,U,67791,999,1643,.50279E-3,.1762E-3,0
KUIPER-00274,2026-030AE,2026-05-22T15:17:43.793088,14.76344504,.0003668,51.9041,235.7216,349.7204,10.3681,0,U,67792,999,1627,.2163E-3,.13E-4,0
KUIPER-00275,2026-030AF,2026-05-22T12:14:22.762752,15.36083655,.0011082,51.8835,223.3998,307.3657,52.6320,0,U,67793,999,1643,.49677E-3,.17414E-3,0
KUIPER-00276,2026-030AG,2026-05-22T14:52:55.800192,15.23969677,.0018101,51.8871,227.7254,304.1246,55.8018,0,U,67794,999,1638,.34671E-3,.8208E-4,0
KUIPER-00279,2026-030AH,2026-05-22T05:31:09.106464,15.35685570,.0006775,51.8807,224.4840,316.4337,43.6113,0,U,67795,999,1639,.65199723E-3,.22672E-3,0
CREW DRAGON 12,2026-031A,2026-05-22T12:28:18.496128,15.49313075,.0007537,51.6330,67.1668,86.3178,273.8672,0,U,67796,999,56767,.13945E-3,.7327E-4,0
STARLINK-36800,2026-032A,2026-05-22T11:24:58.860000,15.33456880,.0001827,97.2862,330.6829,77.2378,282.9069,0,U,67797,999,1627,.76777E-3,.24803E-3,0
STARLINK-36798,2026-032B,2026-05-22T10:57:32.751648,15.33454620,.0002264,97.2885,330.5556,86.7352,273.4150,0,U,67798,999,1626,.7889E-3,.25489E-3,0
STARLINK-36804,2026-032C,2026-05-22T06:39:07.615008,15.33447448,.0001176,97.2883,330.3394,127.3088,232.8262,0,U,67799,999,1623,.42401E-3,.13639E-3,0
STARLINK-36354,2026-032D,2026-05-22T01:41:34.097856,15.33451939,.00014206,97.2853,330.1654,100.0777,260.0626,0,U,67800,999,1620,.36929093E-3,.11868E-3,0
STARLINK-36773,2026-032E,2026-05-22T11:17:07.357056,15.33455879,.0001883,97.2870,330.5369,96.0859,264.0599,0,U,67801,999,1626,.72708E-3,.23479E-3,0
STARLINK-36739,2026-032F,2026-05-22T05:59:58.695360,15.33446369,.0001363,97.2870,330.3819,104.8905,255.2489,0,U,67802,999,1623,.2892E-3,.9273E-4,0
