KUIPER-00203            
1 67773U 26030K   26142.69296797  .00002351  00000+0  33717-3 0  9995
2 67773  51.9055 250.8943 0000619 119.0828 241.0197 14.79942201 16069
KUIPER-00205            
1 67774U 26030L   26142.75002315  .00033577  00000+0  10259-2 0  9993
2 67774  51.8803 220.9244 0004230 301.9995 229.2693 15.33570555  5069
KUIPER-00208            
1 67775U 26030M   26142.60648222  .00001207  00000+0  20223-3 0  9999
2 67775  51.8971 242.4435 0006846 317.5207  42.5223 14.76526215 16170
KUIPER-00209            
1 67776U 26030N   26142.70363778  .00001228  00000+0  19014-3 0  9990
2 67776  51.8982 240.9127 0000574 157.8801 202.2186 14.79906834 16200
KUIPER-00213            
1 67777U 26030P   26142.67258845  .00002305  00000+0  33145-3 0  9993
2 67777  51.8956 238.5505 0001146  60.8895 299.2182 14.79901220 16236
KUIPER-00214            
1 67778U 26030Q   26142.64163973  .00002499  00000+0  35662-3 0  9998
2 67778  51.8989 236.1764 0000543 112.2171 247.8849 14.79933012 16269
KUIPER-00215            
1 67779U 26030R   26142.75002315 -.00003001  00000+0 -15744-3 0  9994
2 67779  51.8953 223.8543 0010094 340.8768 243.7599 15.11494007  5697
KUIPER-00218            
1 67780U 26030S   26142.58985074  .00001103  00000+0  18761-3 0  9990
2 67780  51.8962 238.3213 0000934  93.5987 266.5080 14.76456656 16239
KUIPER-00220            
1 67781U 26030T   26142.75002315 -.00016936  00000+0 -56971-3 0  9995
2 67781  51.8824 222.3264 0008550 334.4592 211.9143 15.29625226  5846
KUIPER-00222            
1 67782U 26030U   26142.61047355 -.00010019  00000+0 -12894-2 0  9995
2 67782  51.8952 233.8839 0001195 261.4095  98.6732 14.79860530 16297
KUIPER-00223            
1 67783U 26030V   26142.75002315  .00004273  00000+0  41348-3 0  9998
2 67783  51.8944 225.7013 0007500 352.3488  65.6910 14.94596697  5539
KUIPER-00225            
1 67784U 26030W   26142.67458214  .00001242  00000+0  20764-3 0  9995
2 67784  51.8981 230.6498 0002728 345.7652  14.3232 14.76427280 16349
KUIPER-00226            
1 67785U 26030X   26140.26264334  .00004093  00000+0  18133-3 0  9991
2 67785  51.8854 238.9188 0018029 324.7797  35.1992 15.23722137 16025
KUIPER-00259            
1 67786U 26030Y   26142.56867852  .00001183  00000+0  19950-3 0  9996
2 67786  51.8976 230.9719 0001580 100.8088 259.3051 14.76352741 16330
KUIPER-00260            
1 67787U 26030Z   26142.75002315  .00019738  00000+0  28279-2 0  9991
2 67787  51.9149 227.6600 0002470 112.9985 169.4292 14.76533481  4141
KUIPER-00262            
1 67788U 26030AA  26142.75002315  .00022929  00000+0  30689-2 0  9996
2 67788  51.8992 228.1241 0002520  97.2366  82.2060 14.79343163  2173
KUIPER-00266            
1 67789U 26030AB  26142.75002315  .00021902  00000+0  13473-2 0  9999
2 67789  51.8890 227.3379 0021582 338.9689 239.9950 15.09771693  5513
KUIPER-00268            
1 67790U 26030AC  26142.75002315  .00011881  00000+0  92697-3 0  9992
2 67790  51.8943 223.8382 0002903 331.7595 184.2281 15.01517704  5660
KUIPER-00270            
1 67791U 26030AD  26142.51804884  .00017620  00000+0  50279-3 0  9995
2 67791  51.8802 223.4159 0011074 325.5485  34.4782 15.36067187 16433
KUIPER-00274            
1 67792U 26030AE  26142.63731242  .00001300  00000+0  21630-3 0  9993
2 67792  51.9041 235.7216 0003668 349.7204  10.3681 14.76344504 16274
KUIPER-00275            
1 67793U 26030AF  26142.50998568  .00017414  00000+0  49677-3 0  9990
2 67793  51.8835 223.3998 0011082 307.3657  52.6320 15.36083655 16437
KUIPER-00276            
1 67794U 26030AG  26142.62009028  .00008208  00000+0  34671-3 0  9997
2 67794  51.8871 227.7254 0018101 304.1246  55.8018 15.23969677 16385
KUIPER-00279            
1 67795U 26030AH  26142.22996651  .00022672  00000+0  65200-3 0  9994
2 67795  51.8807 224.4840 0006775 316.4337  43.6113 15.35685570 16393
CREW DRAGON 12          
1 67796U 26031A   26142.51965852  .00007327  00000+0  13945-3 0  9996
2 67796  51.6330  67.1668 0007537  86.3178 273.8672 15.49313075567678
STARLINK-36800          
1 67797U 26032A   26142.47568125  .00024803  00000+0  76777-3 0  9995
2 67797  97.2862 330.6829 0001827  77.2378 282.9069 15.33456880 16270
STARLINK-36798          
1 67798U 26032B   26142.45662907  .00025489  00000+0  78890-3 0  9996
2 67798  97.2885 330.5556 0002264  86.7352 273.4150 15.33454620 16260
STARLINK-36804          
1 67799U 26032C   26142.27717147  .00013639  00000+0  42401-3 0  9997
2 67799  97.2883 330.3394 0001176 127.3088 232.8262 15.33447448 16236
STARLINK-36354          
1 67800U 26032D   26142.07053354  .00011868  00000+0  36929-3 0  9991
2 67800  97.2853 330.1654 0001420 100.0777 260.0626 15.33451939 16202
STARLINK-36773          
1 67801U 26032E   26142.47022404  .00023479  00000+0  72708-3 0  9994
2 67801  97.2870 330.5369 0001883  96.0859 264.0599 15.33455879 16263
STARLINK-36739          
1 67802U 26032F   26142.24998490  .00009273  00000+0  28920-3 0  9990
2 67802  97.2870 330.3819 0001363 104.8905 255.2489 15.33446369 16236
